start=new Date('2022-07-02T00:00:00.000Z').valueOf();
sats=[{"TLE_LINE1":"1 52366U 22045AM  22182.58334491  .00011414  00000-0  85638-4 0  9992","TIME_SYSTEM":"UTC","MEAN_ELEMENT_THEORY":"SGP4","MEAN_MOTION":"15.73197886","FILE":"3506285","OBJECT_TYPE":"PAYLOAD","ELEMENT_SET_NO":"999","MEAN_ANOMALY":"291.5275","OBJECT_ID":"2022-045AM","ECCENTRICITY":"0.00028410","SEMIMAJOR_AXIS":"6727.901","EPOCH":"2022-07-01T14:00:01.000224","ARG_OF_PERICENTER":"8.7287","EPHEMERIS_TYPE":"0","PERIOD":"91.533","NORAD_CAT_ID":"52366","BSTAR":"0.00008563800000","REV_AT_EPOCH":"130","RCS_SIZE":"LARGE","SITE":"AFETR","OBJECT_NAME":"STARLINK-3808","CLASSIFICATION_TYPE":"U","MEAN_MOTION_DOT":"0.00011414","CENTER_NAME":"EARTH","DECAY_DATE":null,"APOAPSIS":"351.678","REF_FRAME":"TEME","GP_ID":"207212031","LAUNCH_DATE":"2022-04-29","PERIAPSIS":"347.855","COUNTRY_CODE":"US","TLE_LINE2":"2 52366  53.2157 125.9645 0002841   8.7287 291.5275 15.73197886  1306","MEAN_MOTION_DDOT":"0.0000000000000","RA_OF_ASC_NODE":"125.9645","INCLINATION":"53.2157"},{"MEAN_ELEMENT_THEORY":"SGP4","TLE_LINE1":"1 52367U 22045AN  22182.58334491  .00010404  00000-0  78388-4 0  9995","TIME_SYSTEM":"UTC","FILE":"3506285","MEAN_MOTION":"15.73221074","OBJECT_TYPE":"PAYLOAD","ECCENTRICITY":"0.00028140","SEMIMAJOR_AXIS":"6727.835","OBJECT_ID":"2022-045AN","EPOCH":"2022-07-01T14:00:01.000224","MEAN_ANOMALY":"282.3662","ELEMENT_SET_NO":"999","ARG_OF_PERICENTER":"16.1022","CLASSIFICATION_TYPE":"U","OBJECT_NAME":"STARLINK-3817","SITE":"AFETR","RCS_SIZE":"LARGE","PERIOD":"91.532","NORAD_CAT_ID":"52367","EPHEMERIS_TYPE":"0","BSTAR":"0.00007838800000","REV_AT_EPOCH":"130","REF_FRAME":"TEME","APOAPSIS":"351.593","DECAY_DATE":null,"CENTER_NAME":"EARTH","GP_ID":"207212334","MEAN_MOTION_DOT":"0.00010404","INCLINATION":"53.2158","MEAN_MOTION_DDOT":"0.0000000000000","RA_OF_ASC_NODE":"125.9690","PERIAPSIS":"347.807","LAUNCH_DATE":"2022-04-29","COUNTRY_CODE":"US","TLE_LINE2":"2 52367  53.2158 125.9690 0002814  16.1022 282.3662 15.73221074  1303"},{"MEAN_MOTION_DOT":"0.00011789","CENTER_NAME":"EARTH","DECAY_DATE":null,"APOAPSIS":"351.678","REF_FRAME":"TEME","GP_ID":"207212484","LAUNCH_DATE":"2022-04-29","PERIAPSIS":"347.811","COUNTRY_CODE":"US","TLE_LINE2":"2 52368  53.2156 125.9608 0002874  22.6871 279.3128 15.73205478  1304","MEAN_MOTION_DDOT":"0.0000000000000","RA_OF_ASC_NODE":"125.9608","INCLINATION":"53.2156","ARG_OF_PERICENTER":"22.6871","EPHEMERIS_TYPE":"0","PERIOD":"91.533","NORAD_CAT_ID":"52368","BSTAR":"0.00008827700000","REV_AT_EPOCH":"130","RCS_SIZE":"LARGE","SITE":"AFETR","OBJECT_NAME":"STARLINK-3834","CLASSIFICATION_TYPE":"U","OBJECT_TYPE":"PAYLOAD","ELEMENT_SET_NO":"999","MEAN_ANOMALY":"279.3128","OBJECT_ID":"2022-045AP","SEMIMAJOR_AXIS":"6727.880","ECCENTRICITY":"0.00028740","EPOCH":"2022-07-01T14:00:01.000224","TLE_LINE1":"1 52368U 22045AP  22182.58334491  .00011789  00000-0  88277-4 0  9991","TIME_SYSTEM":"UTC","MEAN_ELEMENT_THEORY":"SGP4","MEAN_MOTION":"15.73205478","FILE":"3506285"},{"FILE":"3506285","MEAN_MOTION":"15.73243771","MEAN_ELEMENT_THEORY":"SGP4","TIME_SYSTEM":"UTC","TLE_LINE1":"1 52369U 22045AQ  22182.58334491 -.00079115  00000-0 -56336-3 0  9991","EPOCH":"2022-07-01T14:00:01.000224","ECCENTRICITY":"0.00029140","SEMIMAJOR_AXIS":"6727.770","OBJECT_ID":"2022-045AQ","MEAN_ANOMALY":"288.1634","ELEMENT_SET_NO":"999","OBJECT_TYPE":"PAYLOAD","CLASSIFICATION_TYPE":"U","RCS_SIZE":"LARGE","SITE":"AFETR","OBJECT_NAME":"STARLINK-3841","BSTAR":"-0.00056336000000","REV_AT_EPOCH":"130","PERIOD":"91.531","NORAD_CAT_ID":"52369","EPHEMERIS_TYPE":"0","ARG_OF_PERICENTER":"11.4747","INCLINATION":"53.2158","RA_OF_ASC_NODE":"125.9664","MEAN_MOTION_DDOT":"0.0000000000000","TLE_LINE2":"2 52369  53.2158 125.9664 0002914  11.4747 288.1634 15.73243771  1300","COUNTRY_CODE":"US","PERIAPSIS":"347.675","LAUNCH_DATE":"2022-04-29","GP_ID":"207212234","REF_FRAME":"TEME","APOAPSIS":"351.596","DECAY_DATE":null,"CENTER_NAME":"EARTH","MEAN_MOTION_DOT":"-0.00079115"},{"EPOCH":"2022-07-01T14:00:01.000224","OBJECT_ID":"2022-045AR","ECCENTRICITY":"0.00028160","SEMIMAJOR_AXIS":"6727.835","ELEMENT_SET_NO":"999","MEAN_ANOMALY":"287.9745","OBJECT_TYPE":"PAYLOAD","FILE":"3506285","MEAN_MOTION":"15.73221221","MEAN_ELEMENT_THEORY":"SGP4","TIME_SYSTEM":"UTC","TLE_LINE1":"1 52370U 22045AR  22182.58334491 -.00049928  00000-0 -35301-3 0  9991","MEAN_MOTION_DDOT":"0.0000000000000","RA_OF_ASC_NODE":"125.9626","INCLINATION":"53.2157","COUNTRY_CODE":"US","TLE_LINE2":"2 52370  53.2157 125.9626 0002816  12.8624 287.9745 15.73221221  1305","LAUNCH_DATE":"2022-04-29","PERIAPSIS":"347.805","GP_ID":"207212384","DECAY_DATE":null,"CENTER_NAME":"EARTH","REF_FRAME":"TEME","APOAPSIS":"351.594","MEAN_MOTION_DOT":"-0.00049928","SITE":"AFETR","OBJECT_NAME":"STARLINK-3827","RCS_SIZE":"LARGE","CLASSIFICATION_TYPE":"U","BSTAR":"-0.00035301000000","REV_AT_EPOCH":"130","EPHEMERIS_TYPE":"0","NORAD_CAT_ID":"52370","PERIOD":"91.532","ARG_OF_PERICENTER":"12.8624"},{"ELEMENT_SET_NO":"999","MEAN_ANOMALY":"281.4558","OBJECT_ID":"2022-045AS","ECCENTRICITY":"0.00025550","SEMIMAJOR_AXIS":"6727.876","EPOCH":"2022-07-01T14:00:01.000224","OBJECT_TYPE":"PAYLOAD","MEAN_MOTION":"15.73206616","FILE":"3506285","TLE_LINE1":"1 52371U 22045AS  22182.58334491 -.00016590  00000-0 -11395-3 0  9998","TIME_SYSTEM":"UTC","MEAN_ELEMENT_THEORY":"SGP4","LAUNCH_DATE":"2022-04-29","PERIAPSIS":"348.022","COUNTRY_CODE":"US","TLE_LINE2":"2 52371  53.2157 125.9623 0002555  19.9969 281.4558 15.73206616  1305","MEAN_MOTION_DDOT":"0.0000000000000","RA_OF_ASC_NODE":"125.9623","INCLINATION":"53.2157","MEAN_MOTION_DOT":"-0.00016590","DECAY_DATE":null,"CENTER_NAME":"EARTH","APOAPSIS":"351.460","REF_FRAME":"TEME","GP_ID":"207212687","EPHEMERIS_TYPE":"0","PERIOD":"91.533","NORAD_CAT_ID":"52371","REV_AT_EPOCH":"130","BSTAR":"-0.00011395000000","SITE":"AFETR","RCS_SIZE":"LARGE","OBJECT_NAME":"STARLINK-3798","CLASSIFICATION_TYPE":"U","ARG_OF_PERICENTER":"19.9969"},{"ECCENTRICITY":"0.00030720","SEMIMAJOR_AXIS":"6727.850","OBJECT_ID":"2022-045AT","EPOCH":"2022-07-01T14:00:01.000224","MEAN_ANOMALY":"288.3116","ELEMENT_SET_NO":"999","OBJECT_TYPE":"PAYLOAD","FILE":"3506285","MEAN_MOTION":"15.73215726","MEAN_ELEMENT_THEORY":"SGP4","TLE_LINE1":"1 52372U 22045AT  22182.58334491  .00012358  00000-0  92276-4 0  9993","TIME_SYSTEM":"UTC","INCLINATION":"53.2155","MEAN_MOTION_DDOT":"0.0000000000000","RA_OF_ASC_NODE":"125.9585","PERIAPSIS":"347.649","LAUNCH_DATE":"2022-04-29","COUNTRY_CODE":"US","TLE_LINE2":"2 52372  53.2155 125.9585 0003072  14.8968 288.3116 15.73215726  1307","APOAPSIS":"351.782","REF_FRAME":"TEME","DECAY_DATE":null,"CENTER_NAME":"EARTH","GP_ID":"207212133","MEAN_MOTION_DOT":"0.00012358","CLASSIFICATION_TYPE":"U","OBJECT_NAME":"STARLINK-3796","SITE":"AFETR","RCS_SIZE":"LARGE","PERIOD":"91.532","NORAD_CAT_ID":"52372","EPHEMERIS_TYPE":"0","BSTAR":"0.00009227600000","REV_AT_EPOCH":"130","ARG_OF_PERICENTER":"14.8968"},{"MEAN_MOTION_DOT":"0.00007154","APOAPSIS":"351.791","REF_FRAME":"TEME","CENTER_NAME":"EARTH","DECAY_DATE":null,"GP_ID":"207212586","PERIAPSIS":"347.554","LAUNCH_DATE":"2022-04-29","COUNTRY_CODE":"US","TLE_LINE2":"2 52373  53.2152 125.9573 0003149  13.0328 291.3448 15.73230622  1302","INCLINATION":"53.2152","MEAN_MOTION_DDOT":"0.0000000000000","RA_OF_ASC_NODE":"125.9573","ARG_OF_PERICENTER":"13.0328","PERIOD":"91.531","NORAD_CAT_ID":"52373","EPHEMERIS_TYPE":"0","REV_AT_EPOCH":"130","BSTAR":"0.00005528800000","CLASSIFICATION_TYPE":"U","OBJECT_NAME":"STARLINK-3550","SITE":"AFETR","RCS_SIZE":"LARGE","OBJECT_TYPE":"PAYLOAD","MEAN_ANOMALY":"291.3448","ELEMENT_SET_NO":"999","ECCENTRICITY":"0.00031490","SEMIMAJOR_AXIS":"6727.808","OBJECT_ID":"2022-045AU","EPOCH":"2022-07-01T14:00:01.000224","TLE_LINE1":"1 52373U 22045AU  22182.58334491  .00007154  00000-0  55288-4 0  9994","TIME_SYSTEM":"UTC","MEAN_ELEMENT_THEORY":"SGP4","MEAN_MOTION":"15.73230622","FILE":"3506285"},{"COUNTRY_CODE":"US","TLE_LINE2":"2 52374  53.2155 125.9571 0003058  14.7860 289.0763 15.73196283  1300","LAUNCH_DATE":"2022-04-29","PERIAPSIS":"347.713","RA_OF_ASC_NODE":"125.9571","MEAN_MOTION_DDOT":"0.0000000000000","INCLINATION":"53.2155","MEAN_MOTION_DOT":"-0.00017375","GP_ID":"207212032","DECAY_DATE":null,"CENTER_NAME":"EARTH","APOAPSIS":"351.828","REF_FRAME":"TEME","BSTAR":"-0.00011960000000","REV_AT_EPOCH":"130","EPHEMERIS_TYPE":"0","PERIOD":"91.533","NORAD_CAT_ID":"52374","RCS_SIZE":"LARGE","SITE":"AFETR","OBJECT_NAME":"STARLINK-3762","CLASSIFICATION_TYPE":"U","ARG_OF_PERICENTER":"14.7860","ELEMENT_SET_NO":"999","MEAN_ANOMALY":"289.0763","EPOCH":"2022-07-01T14:00:01.000224","OBJECT_ID":"2022-045AV","ECCENTRICITY":"0.00030580","SEMIMAJOR_AXIS":"6727.906","OBJECT_TYPE":"PAYLOAD","MEAN_MOTION":"15.73196283","FILE":"3506285","TIME_SYSTEM":"UTC","TLE_LINE1":"1 52374U 22045AV  22182.58334491 -.00017375  00000-0 -11960-3 0  9991","MEAN_ELEMENT_THEORY":"SGP4"},{"PERIOD":"91.615","NORAD_CAT_ID":"52375","EPHEMERIS_TYPE":"0","REV_AT_EPOCH":"130","BSTAR":"-0.00591370000000","CLASSIFICATION_TYPE":"U","OBJECT_NAME":"STARLINK-3785","SITE":"AFETR","RCS_SIZE":"LARGE","ARG_OF_PERICENTER":"6.0564","PERIAPSIS":"351.874","LAUNCH_DATE":"2022-04-29","COUNTRY_CODE":"US","TLE_LINE2":"2 52375  53.2175 125.9617 0002787   6.0564 294.1241 15.71801671  1307","INCLINATION":"53.2175","MEAN_MOTION_DDOT":"0.0000000000000","RA_OF_ASC_NODE":"125.9617","MEAN_MOTION_DOT":"-0.00719132","REF_FRAME":"TEME","APOAPSIS":"355.626","DECAY_DATE":null,"CENTER_NAME":"EARTH","GP_ID":"207212335","MEAN_MOTION":"15.71801671","FILE":"3506285","TLE_LINE1":"1 52375U 22045AW  22182.58334491 -.00719132  00000-0 -59137-2 0  9999","TIME_SYSTEM":"UTC","MEAN_ELEMENT_THEORY":"SGP4","MEAN_ANOMALY":"294.1241","ELEMENT_SET_NO":"999","ECCENTRICITY":"0.00027870","SEMIMAJOR_AXIS":"6731.885","OBJECT_ID":"2022-045AW","EPOCH":"2022-07-01T14:00:01.000224","OBJECT_TYPE":"PAYLOAD"}];
